0 DELTA 1 DEB
1 07126U 73086CQ  13283.33774575  .00000209  00000-0  16831-2 0   328
2 07126 101.8822 319.5166 0291532 317.0235 105.2613 12.38289329800591
0 DELTA 1 DEB
1 07126U 73086CQ  13286.32645957  .00000294  00000-0  22402-2 0   348
2 07126 101.8814 322.4291 0291811 311.3941 108.5420 12.38291773800964
0 DELTA 1 DEB
1 07126U 73086CQ  13287.56349444  .00000320  00000-0  24152-2 0   352
2 07126 101.8810 323.6345 0291937 309.0662 223.0767 12.38292514801115
0 DELTA 1 DEB
1 07126U 73086CQ  13289.07187984  .00000322  00000-0  24241-2 0   361
2 07126 101.8806 325.1045 0292110 306.2288 107.2606 12.38293951801303
0 DELTA 1 DEB
1 07126U 73086CQ  13291.33597347  .00000279  00000-0  21393-2 0   378
2 07126 101.8803 327.3105 0292426 301.9680 120.3064 12.38295623801581
0 DELTA 1 DEB
1 07126U 73086CQ  13292.57261906  .00000269  00000-0  20779-2 0   381
2 07126 101.8802 328.5154 0292566 299.6458 233.1163 12.38296058801731
0 DELTA 1 DEB
1 07126U 73086CQ  13293.69177377  .00000278  00000-0  21328-2 0   395
2 07126 101.8802 329.6056 0292693 297.5455 182.1695 12.38296766801873
0 DELTA 1 DEB
1 07126U 73086CQ  13295.05024964  .00000288  00000-0  21987-2 0   404
2 07126 101.8802 330.9291 0292864 294.9985 118.0889 12.38298108802043
0 DELTA 1 DEB
1 07126U 73086CQ  13296.09356678  .00000255  00000-0  19857-2 0   417
2 07126 101.8801 331.9455 0293040 293.0399 089.0740 12.38298518802173
